*******************************************************************************
Ephemeris / WWW_USER Tue Mar 11 05:35:22 2025 Pasadena, USA      / Horizons    
*******************************************************************************
Target body name: (2018 YU2)                      {source: JPL#5}
Center body name: Earth (399)                     {source: DE441}
Center-site name: Gemini South Obs., Cerro Pachon
*******************************************************************************
Start time      : A.D. 2018-Jul-31 22:18:00.0000 UT      
Stop  time      : A.D. 2018-Aug-01 11:20:00.0000 UT      
Step-size       : 1 minutes
*******************************************************************************
Target pole/equ : undefined
Target radii    : undefined                                                    
Center geodetic : 289.2634, -30.2406227, 2.71233  {E-lon(deg),Lat(deg),Alt(km)}
Center cylindric: 289.2634,5517.21435,-3194.81213 {E-lon(deg),Dxy(km),Dz(km)}
Center pole/equ : ITRF93                          {East-longitude positive}
Center radii    : 6378.137, 6378.137, 6356.752 km {Equator_a, b, pole_c}       
Target primary  : Sun
Vis. interferer : MOON (R_eq= 1737.400) km        {source: DE441}
Rel. light bend : Sun                             {source: DE441}
Rel. lght bnd GM: 1.3271E+11 km^3/s^2                                          
Small-body perts: Yes                             {source: SB441-N16}
Atmos refraction: NO (AIRLESS)
RA format       : HMS
Time format     : CAL 
Calendar mode   : Mixed Julian/Gregorian
RTS-only print  : NO       
EOP file        : eop.250310.p250606                                           
EOP coverage    : DATA-BASED 1962-JAN-20 TO 2025-MAR-10. PREDICTS-> 2025-JUN-05
Units conversion: 1 au= 149597870.700 km, c= 299792.458 km/s, 1 day= 86400.0 s 
Table cut-offs 1: Elevation (-90.0deg=NO ),Airmass (>38.000=NO), Daylight (YES)
Table cut-offs 2: Solar elongation (  0.0,180.0=NO ),Local Hour Angle( 0.0=NO )
Table cut-offs 3: RA/DEC angular rate (     0.0=NO )                           
*******************************************************************************
Initial IAU76/J2000 heliocentric ecliptic osculating elements (au, days, deg.):
  EPOCH=  2458477.5 ! 2018-Dec-25.00 (TDB)         Residual RMS= .22887        
   EC= .1533598773405833   QR= .920984914841031    TP= 2458549.1486254167      
   OM= 279.4515303175068   W=  253.4059234937716   IN= 2.850769624588425       
  Equivalent ICRF heliocentric cartesian coordinates (au, au/d):
   X=-6.842297687009524E-02  Y= 9.429126817220428E-01  Z= 4.143187104036840E-01
  VX=-1.695115058702848E-02 VY=-2.997207899955317E-03 VZ=-2.239432528215744E-03
Asteroid physical parameters (km, seconds, rotational period in hours):        
   GM= n.a.                RAD= n.a.               ROTPER= n.a.                
   H= 26.5                 G= .150                 B-V= n.a.                   
                           ALBEDO= n.a.            STYP= n.a.                  
*******************************************************************************
 Date__(UT)__HR:MN     R.A._________(ICRF)_________DEC
******************************************************
$$SOE
 2018-Aug-01 00:21     02 25 32.012145 +18 56 16.00891
 2018-Aug-01 00:22     02 25 32.117420 +18 56 16.64464
 2018-Aug-01 00:23     02 25 32.222689 +18 56 17.28043
 2018-Aug-01 00:24     02 25 32.327952 +18 56 17.91626
 2018-Aug-01 00:25     02 25 32.433208 +18 56 18.55215
 2018-Aug-01 00:26     02 25 32.538458 +18 56 19.18809
 2018-Aug-01 00:27     02 25 32.643702 +18 56 19.82408
 2018-Aug-01 00:28     02 25 32.748940 +18 56 20.46012
 2018-Aug-01 00:29     02 25 32.854171 +18 56 21.09621
 2018-Aug-01 00:30     02 25 32.959395 +18 56 21.73235
 2018-Aug-01 00:31     02 25 33.064613 +18 56 22.36854
 2018-Aug-01 00:32     02 25 33.169824 +18 56 23.00479
 2018-Aug-01 00:33     02 25 33.275029 +18 56 23.64108
 2018-Aug-01 00:34     02 25 33.380227 +18 56 24.27743
 2018-Aug-01 00:35     02 25 33.485418 +18 56 24.91382
 2018-Aug-01 00:36     02 25 33.590603 +18 56 25.55027
 2018-Aug-01 00:37     02 25 33.695780 +18 56 26.18676
 2018-Aug-01 00:38     02 25 33.800951 +18 56 26.82331
 2018-Aug-01 00:39     02 25 33.906115 +18 56 27.45990
 2018-Aug-01 00:40     02 25 34.011272 +18 56 28.09654
 2018-Aug-01 00:41     02 25 34.116421 +18 56 28.73324
 2018-Aug-01 00:42     02 25 34.221564 +18 56 29.36998
 2018-Aug-01 00:43     02 25 34.326699 +18 56 30.00677
 2018-Aug-01 00:44     02 25 34.431827 +18 56 30.64361
 2018-Aug-01 00:45     02 25 34.536948 +18 56 31.28050
 2018-Aug-01 00:46     02 25 34.642062 +18 56 31.91744
 2018-Aug-01 00:47     02 25 34.747168 +18 56 32.55442
 2018-Aug-01 00:48     02 25 34.852267 +18 56 33.19145
 2018-Aug-01 00:49     02 25 34.957359 +18 56 33.82854
 2018-Aug-01 00:50     02 25 35.062443 +18 56 34.46567
 2018-Aug-01 00:51     02 25 35.167519 +18 56 35.10285
 2018-Aug-01 00:52     02 25 35.272588 +18 56 35.74007
 2018-Aug-01 00:53     02 25 35.377649 +18 56 36.37734
 2018-Aug-01 00:54     02 25 35.482703 +18 56 37.01467
 2018-Aug-01 00:55     02 25 35.587749 +18 56 37.65203
 2018-Aug-01 00:56     02 25 35.692787 +18 56 38.28945
 2018-Aug-01 00:57     02 25 35.797817 +18 56 38.92691
 2018-Aug-01 00:58     02 25 35.902839 +18 56 39.56442
 2018-Aug-01 00:59     02 25 36.007854 +18 56 40.20198
 2018-Aug-01 01:00     02 25 36.112860 +18 56 40.83958
 2018-Aug-01 01:01     02 25 36.217859 +18 56 41.47723
 2018-Aug-01 01:02     02 25 36.322849 +18 56 42.11492
 2018-Aug-01 01:03     02 25 36.427831 +18 56 42.75266
 2018-Aug-01 01:04     02 25 36.532805 +18 56 43.39045
 2018-Aug-01 01:05     02 25 36.637771 +18 56 44.02828
 2018-Aug-01 01:06     02 25 36.742729 +18 56 44.66615
 2018-Aug-01 01:07     02 25 36.847678 +18 56 45.30408
 2018-Aug-01 01:08     02 25 36.952619 +18 56 45.94205
 2018-Aug-01 01:09     02 25 37.057552 +18 56 46.58006
 2018-Aug-01 01:10     02 25 37.162476 +18 56 47.21812
 2018-Aug-01 01:11     02 25 37.267392 +18 56 47.85622
 2018-Aug-01 01:12     02 25 37.372299 +18 56 48.49436
 2018-Aug-01 01:13     02 25 37.477198 +18 56 49.13255
 2018-Aug-01 01:14     02 25 37.582088 +18 56 49.77079
 2018-Aug-01 01:15     02 25 37.686970 +18 56 50.40907
 2018-Aug-01 01:16     02 25 37.791842 +18 56 51.04739
 2018-Aug-01 01:17     02 25 37.896706 +18 56 51.68576
 2018-Aug-01 01:18     02 25 38.001562 +18 56 52.32417
 2018-Aug-01 01:19     02 25 38.106408 +18 56 52.96262
 2018-Aug-01 01:20     02 25 38.211245 +18 56 53.60111
 2018-Aug-01 01:21     02 25 38.316074 +18 56 54.23965
 2018-Aug-01 01:22     02 25 38.420894 +18 56 54.87823
 2018-Aug-01 01:23     02 25 38.525704 +18 56 55.51686
 2018-Aug-01 01:24     02 25 38.630506 +18 56 56.15552
 2018-Aug-01 01:25     02 25 38.735298 +18 56 56.79423
 2018-Aug-01 01:26     02 25 38.840082 +18 56 57.43298
 2018-Aug-01 01:27     02 25 38.944856 +18 56 58.07178
 2018-Aug-01 01:28     02 25 39.049621 +18 56 58.71061
 2018-Aug-01 01:29     02 25 39.154377 +18 56 59.34948
 2018-Aug-01 01:30     02 25 39.259123 +18 56 59.98840
 2018-Aug-01 01:31     02 25 39.363860 +18 57 00.62736
 2018-Aug-01 01:32     02 25 39.468588 +18 57 01.26636
 2018-Aug-01 01:33  m  02 25 39.573306 +18 57 01.90539
 2018-Aug-01 01:34  m  02 25 39.678015 +18 57 02.54447
 2018-Aug-01 01:35  m  02 25 39.782715 +18 57 03.18359
 2018-Aug-01 01:36  m  02 25 39.887404 +18 57 03.82275
 2018-Aug-01 01:37  m  02 25 39.992085 +18 57 04.46195
 2018-Aug-01 01:38  m  02 25 40.096755 +18 57 05.10119
 2018-Aug-01 01:39  m  02 25 40.201416 +18 57 05.74047
 2018-Aug-01 01:40  m  02 25 40.306067 +18 57 06.37979
 2018-Aug-01 01:41  m  02 25 40.410709 +18 57 07.01914
 2018-Aug-01 01:42  m  02 25 40.515340 +18 57 07.65854
 2018-Aug-01 01:43  m  02 25 40.619962 +18 57 08.29798
 2018-Aug-01 01:44  m  02 25 40.724574 +18 57 08.93745
 2018-Aug-01 01:45  m  02 25 40.829176 +18 57 09.57696
 2018-Aug-01 01:46  m  02 25 40.933769 +18 57 10.21651
 2018-Aug-01 01:47  m  02 25 41.038351 +18 57 10.85610
 2018-Aug-01 01:48  m  02 25 41.142923 +18 57 11.49572
 2018-Aug-01 01:49  m  02 25 41.247485 +18 57 12.13538
 2018-Aug-01 01:50  m  02 25 41.352037 +18 57 12.77508
 2018-Aug-01 01:51  m  02 25 41.456579 +18 57 13.41482
 2018-Aug-01 01:52  m  02 25 41.561110 +18 57 14.05459
 2018-Aug-01 01:53  m  02 25 41.665632 +18 57 14.69441
 2018-Aug-01 01:54  m  02 25 41.770143 +18 57 15.33425
 2018-Aug-01 01:55  m  02 25 41.874644 +18 57 15.97414
 2018-Aug-01 01:56  m  02 25 41.979135 +18 57 16.61405
 2018-Aug-01 01:57  m  02 25 42.083615 +18 57 17.25401
 2018-Aug-01 01:58  m  02 25 42.188085 +18 57 17.89400
 2018-Aug-01 01:59  m  02 25 42.292544 +18 57 18.53403
 2018-Aug-01 02:00  m  02 25 42.396993 +18 57 19.17409
 2018-Aug-01 02:01  m  02 25 42.501432 +18 57 19.81418
 2018-Aug-01 02:02  m  02 25 42.605860 +18 57 20.45432
 2018-Aug-01 02:03  m  02 25 42.710277 +18 57 21.09448
 2018-Aug-01 02:04  m  02 25 42.814684 +18 57 21.73468
 2018-Aug-01 02:05  m  02 25 42.919080 +18 57 22.37492
 2018-Aug-01 02:06  m  02 25 43.023465 +18 57 23.01518
 2018-Aug-01 02:07  m  02 25 43.127840 +18 57 23.65549
 2018-Aug-01 02:08  m  02 25 43.232204 +18 57 24.29582
 2018-Aug-01 02:09  m  02 25 43.336557 +18 57 24.93619
 2018-Aug-01 02:10  m  02 25 43.440899 +18 57 25.57659
 2018-Aug-01 02:11  m  02 25 43.545231 +18 57 26.21703
 2018-Aug-01 02:12  m  02 25 43.649551 +18 57 26.85749
 2018-Aug-01 02:13  m  02 25 43.753861 +18 57 27.49799
 2018-Aug-01 02:14  m  02 25 43.858160 +18 57 28.13852
 2018-Aug-01 02:15  m  02 25 43.962448 +18 57 28.77909
 2018-Aug-01 02:16  m  02 25 44.066724 +18 57 29.41968
 2018-Aug-01 02:17  m  02 25 44.170990 +18 57 30.06031
 2018-Aug-01 02:18  m  02 25 44.275245 +18 57 30.70097
 2018-Aug-01 02:19  m  02 25 44.379488 +18 57 31.34166
 2018-Aug-01 02:20  m  02 25 44.483720 +18 57 31.98238
 2018-Aug-01 02:21  m  02 25 44.587942 +18 57 32.62313
 2018-Aug-01 02:22  m  02 25 44.692151 +18 57 33.26391
 2018-Aug-01 02:23  m  02 25 44.796350 +18 57 33.90472
